{"type": "FeatureCollection", "features": [ {"type": "Feature", "properties": {"norad_id": 33825, "name": "COSMOS 2251 DEB", "group": "cosmos-2251-debris", "lat": -30.675573499651854, "lon": 36.35471130618841, "alt_km": 627.7331024538989, "timestamp": "2025-12-03T06:58:43.634676+00:00", "meta": {"OBJECT_NAME": "COSMOS 2251 DEB", "OBJECT_ID": "1993-036BS", "EPOCH": "2025-12-02T13:45:05.249088", "MEAN_MOTION": 14.69614011, "ECCENTRICITY": 0.00840493, "INCLINATION": 73.9862, "RA_OF_ASC_NODE": 47.5581, "ARG_OF_PERICENTER": 17.1911, "MEAN_ANOMALY": 115.491, "EPHEMERIS_TYPE": 0, "CLASSIFICATION_TYPE": "U", "NORAD_CAT_ID": 33825, "ELEMENT_SET_NO": 999, "REV_AT_EPOCH": 88730, "BSTAR": 0.0010182695, "MEAN_MOTION_DOT": 6.363e-05, "MEAN_MOTION_DDOT": 0}, "tle": {"line1": "1 33825U 93036BS  25336.57297742  .00006363  00000+0  10183-2 0  9996", "line2": "2 33825  73.9862  47.5581 0084049  17.1911 115.4910 14.69614011887303"}}, "geometry": {"type": "Point", "coordinates": [36.35471130618841, -30.675573499651854]}}, {"type": "Feature", "properties": {"norad_id": 33826, "name": "COSMOS 2251 DEB", "group": "cosmos-2251-debris", "lat": 63.05138727791829, "lon": -146.5527921136061, "alt_km": 654.1961742898293, "timestamp": "2025-12-03T06:58:43.634688+00:00", "meta": {"OBJECT_NAME": "COSMOS 2251 DEB", "OBJECT_ID": "1993-036BT", "EPOCH": "2025-12-02T14:26:43.577664", "MEAN_MOTION": 14.51545961, "ECCENTRICITY": 0.00844473, "INCLINATION": 74.0653, "RA_OF_ASC_NODE": 68.933, "ARG_OF_PERICENTER": 116.4269, "MEAN_ANOMALY": 357.2191, "EPHEMERIS_TYPE": 0, "CLASSIFICATION_TYPE": "U", "NORAD_CAT_ID": 33826, "ELEMENT_SET_NO": 999, "REV_AT_EPOCH": 87622, "BSTAR": 0.0020644081, "MEAN_MOTION_DOT": 8.635e-05, "MEAN_MOTION_DDOT": 0}, "tle": {"line1": "1 33826U 93036BT  25336.60189326  .00008635  00000+0  20644-2 0  9996", "line2": "2 33826  74.0653  68.9330 0084447 116.4269 357.2191 14.51545961876228"}}, "geometry": {"type": "Point", "coordinates": [-146.5527921136061, 63.05138727791829]}}, {"type": "Feature", "properties": {"norad_id": 33828, "name": "COSMOS 2251 DEB", "group": "cosmos-2251-debris", "lat": -70.02336669016401, "lon": 127.55414874829466, "alt_km": 744.9081742971703, "timestamp": "2025-12-03T06:58:43.634700+00:00", "meta": {"OBJECT_NAME": "COSMOS 2251 DEB", "OBJECT_ID": "1993-036BV", "EPOCH": "2025-12-02T20:04:10.761024", "MEAN_MOTION": 14.44275205, "ECCENTRICITY": 0.0029292, "INCLINATION": 74.0474, "RA_OF_ASC_NODE": 256.5043, "ARG_OF_PERICENTER": 330.9979, "MEAN_ANOMALY": 84.7123, "EPHEMERIS_TYPE": 0, "CLASSIFICATION_TYPE": "U", "NORAD_CAT_ID": 33828, "ELEMENT_SET_NO": 999, "REV_AT_EPOCH": 88170, "BSTAR": 0.00074224, "MEAN_MOTION_DOT": 2.539e-05, "MEAN_MOTION_DDOT": 0}, "tle": {"line1": "1 33828U 93036BV  25336.83623566  .00002539  00000+0  74224-3 0  9993", "line2": "2 33828  74.0474 256.5043 0029292 330.9979  84.7123 14.44275205881704"}}, "geometry": {"type": "Point", "coordinates": [127.55414874829466, -70.02336669016401]}}, {"type": "Feature", "properties": {"norad_id": 33830, "name": "COSMOS 2251 DEB", "group": "cosmos-2251-debris", "lat": 65.1566553923781, "lon": 30.687417934568344, "alt_km": 637.2238373013843, "timestamp": "2025-12-03T06:58:43.634712+00:00", "meta": {"OBJECT_NAME": "COSMOS 2251 DEB", "OBJECT_ID": "1993-036BX", "EPOCH": "2025-12-02T19:21:32.775840", "MEAN_MOTION": 14.76678495, "ECCENTRICITY": 0.0042138, "INCLINATION": 74.033, "RA_OF_ASC_NODE": 249.8361, "ARG_OF_PERICENTER": 12.0462, "MEAN_ANOMALY": 44.0053, "EPHEMERIS_TYPE": 0, "CLASSIFICATION_TYPE": "U", "NORAD_CAT_ID": 33830, "ELEMENT_SET_NO": 999, "REV_AT_EPOCH": 89325, "BSTAR": 0.0013529, "MEAN_MOTION_DOT": 9.584e-05, "MEAN_MOTION_DDOT": 0}, "tle": {"line1": "1 33830U 93036BX  25336.80662935  .00009584  00000+0  13529-2 0  9993", "line2": "2 33830  74.0330 249.8361 0042138  12.0462  44.0053 14.76678495893252"}}, "geometry": {"type": "Point", "coordinates": [30.687417934568344, 65.1566553923781]}}, {"type": "Feature", "properties": {"norad_id": 33832, "name": "COSMOS 2251 DEB", "group": "cosmos-2251-debris", "lat": -8.288260977485471, "lon": -134.3865089436847, "alt_km": 695.5444741248548, "timestamp": "2025-12-03T06:58:43.634723+00:00", "meta": {"OBJECT_NAME": "COSMOS 2251 DEB", "OBJECT_ID": "1993-036BZ", "EPOCH": "2025-12-02T18:07:26.320800", "MEAN_MOTION": 14.60434171, "ECCENTRICITY": 0.0025718, "INCLINATION": 74.0549, "RA_OF_ASC_NODE": 229.0216, "ARG_OF_PERICENTER": 262.0448, "MEAN_ANOMALY": 154.2654, "EPHEMERIS_TYPE": 0, "CLASSIFICATION_TYPE": "U", "NORAD_CAT_ID": 33832, "ELEMENT_SET_NO": 999, "REV_AT_EPOCH": 88279, "BSTAR": 0.0017483, "MEAN_MOTION_DOT": 8.49e-05, "MEAN_MOTION_DDOT": 0}, "tle": {"line1": "1 33832U 93036BZ  25336.75516575  .00008490  00000+0  17483-2 0  9995", "line2": "2 33832  74.0549 229.0216 0025718 262.0448 154.2654 14.60434171882793"}}, "geometry": {"type": "Point", "coordinates": [-134.3865089436847, -8.288260977485471]}}, {"type": "Feature", "properties": {"norad_id": 33835, "name": "COSMOS 2251 DEB", "group": "cosmos-2251-debris", "lat": 46.22131623851698, "lon": -78.17934131570168, "alt_km": 653.7083715502113, "timestamp": "2025-12-03T06:58:43.634733+00:00", "meta": {"OBJECT_NAME": "COSMOS 2251 DEB", "OBJECT_ID": "1993-036CC", "EPOCH": "2025-12-02T19:28:26.300064", "MEAN_MOTION": 14.62061225, "ECCENTRICITY": 0.0055721, "INCLINATION": 74.0555, "RA_OF_ASC_NODE": 120.095, "ARG_OF_PERICENTER": 176.3218, "MEAN_ANOMALY": 313.2995, "EPHEMERIS_TYPE": 0, "CLASSIFICATION_TYPE": "U", "NORAD_CAT_ID": 33835, "ELEMENT_SET_NO": 999, "REV_AT_EPOCH": 88644, "BSTAR": 0.0016116, "MEAN_MOTION_DOT": 8.252e-05, "MEAN_MOTION_DDOT": 0}, "tle": {"line1": "1 33835U 93036CC  25336.81141551  .00008252  00000+0  16116-2 0  9991", "line2": "2 33835  74.0555 120.0950 0055721 176.3218 313.2995 14.62061225886446"}}, "geometry": {"type": "Point", "coordinates": [-78.17934131570168, 46.22131623851698]}}, {"type": "Feature", "properties": {"norad_id": 33836, "name": "COSMOS 2251 DEB", "group": "cosmos-2251-debris", "lat": -66.68366873453816, "lon": -124.15741250651865, "alt_km": 652.3746308139689, "timestamp": "2025-12-03T06:58:43.634743+00:00", "meta": {"OBJECT_NAME": "COSMOS 2251 DEB", "OBJECT_ID": "1993-036CD", "EPOCH": "2025-12-02T07:39:27.828576", "MEAN_MOTION": 14.79283653, "ECCENTRICITY": 0.00224112, "INCLINATION": 73.9971, "RA_OF_ASC_NODE": 279.5071, "ARG_OF_PERICENTER": 136.5131, "MEAN_ANOMALY": 17.9329, "EPHEMERIS_TYPE": 0, "CLASSIFICATION_TYPE": "U", "NORAD_CAT_ID": 33836, "ELEMENT_SET_NO": 999, "REV_AT_EPOCH": 63934, "BSTAR": 0.0015908876, "MEAN_MOTION_DOT": 0.00011871, "MEAN_MOTION_DDOT": 0}, "tle": {"line1": "1 33836U 93036CD  25336.31907209  .00011871  00000+0  15909-2 0  9997", "line2": "2 33836  73.9971 279.5071 0022411 136.5131  17.9329 14.79283653639346"}}, "geometry": {"type": "Point", "coordinates": [-124.15741250651865, -66.68366873453816]}}, {"type": "Feature", "properties": {"norad_id": 33837, "name": "COSMOS 2251 DEB", "group": "cosmos-2251-debris", "lat": 15.117686312453683, "lon": -111.05533572452246, "alt_km": 740.9757595858318, "timestamp": "2025-12-03T06:58:43.634754+00:00", "meta": {"OBJECT_NAME": "COSMOS 2251 DEB", "OBJECT_ID": "1993-036CE", "EPOCH": "2025-12-02T16:58:51.283200", "MEAN_MOTION": 14.50664555, "ECCENTRICITY": 0.003562, "INCLINATION": 74.0128, "RA_OF_ASC_NODE": 74.4842, "ARG_OF_PERICENTER": 297.8685, "MEAN_ANOMALY": 61.8868, "EPHEMERIS_TYPE": 0, "CLASSIFICATION_TYPE": "U", "NORAD_CAT_ID": 33837, "ELEMENT_SET_NO": 999, "REV_AT_EPOCH": 88650, "BSTAR": 0.00038508, "MEAN_MOTION_DOT": 1.496e-05, "MEAN_MOTION_DDOT": 0}, "tle": {"line1": "1 33837U 93036CE  25336.70753800  .00001496  00000+0  38508-3 0  9990", "line2": "2 33837  74.0128  74.4842 0035620 297.8685  61.8868 14.50664555886503"}}, "geometry": {"type": "Point", "coordinates": [-111.05533572452246, 15.117686312453683]}}, {"type": "Feature", "properties": {"norad_id": 33838, "name": "COSMOS 2251 DEB", "group": "cosmos-2251-debris", "lat": 59.20798071493676, "lon": -41.200482166959944, "alt_km": 744.4277207429577, "timestamp": "2025-12-03T06:58:43.634764+00:00", "meta": {"OBJECT_NAME": "COSMOS 2251 DEB", "OBJECT_ID": "1993-036CF", "EPOCH": "2025-12-02T18:54:35.023104", "MEAN_MOTION": 14.48314714, "ECCENTRICITY": 0.0027377, "INCLINATION": 74.0356, "RA_OF_ASC_NODE": 168.4497, "ARG_OF_PERICENTER": 291.6655, "MEAN_ANOMALY": 84.0949, "EPHEMERIS_TYPE": 0, "CLASSIFICATION_TYPE": "U", "NORAD_CAT_ID": 33838, "ELEMENT_SET_NO": 999, "REV_AT_EPOCH": 88425, "BSTAR": 0.00047839, "MEAN_MOTION_DOT": 1.769e-05, "MEAN_MOTION_DDOT": 0}, "tle": {"line1": "1 33838U 93036CF  25336.78790536  .00001769  00000+0  47839-3 0  9996", "line2": "2 33838  74.0356 168.4497 0027377 291.6655  84.0949 14.48314714884259"}}, "geometry": {"type": "Point", "coordinates": [-41.200482166959944, 59.20798071493676]}}, {"type": "Feature", "properties": {"norad_id": 33839, "name": "COSMOS 2251 DEB", "group": "cosmos-2251-debris", "lat": -35.041239098676925, "lon": 56.21344296541564, "alt_km": 716.6379474783498, "timestamp": "2025-12-03T06:58:43.634774+00:00", "meta": {"OBJECT_NAME": "COSMOS 2251 DEB", "OBJECT_ID": "1993-036CG", "EPOCH": "2025-12-02T18:47:22.330176", "MEAN_MOTION": 14.64372309, "ECCENTRICITY": 0.0084788, "INCLINATION": 74.0389, "RA_OF_ASC_NODE": 225.6106, "ARG_OF_PERICENTER": 340.0033, "MEAN_ANOMALY": 81.0556, "EPHEMERIS_TYPE": 0, "CLASSIFICATION_TYPE": "U", "NORAD_CAT_ID": 33839, "ELEMENT_SET_NO": 999, "REV_AT_EPOCH": 89434, "BSTAR": 0.00036959, "MEAN_MOTION_DOT": 2.025e-05, "MEAN_MOTION_DDOT": 0}, "tle": {"line1": "1 33839U 93036CG  25336.78289734  .00002025  00000+0  36959-3 0  9997", "line2": "2 33839  74.0389 225.6106 0084788 340.0033  81.0556 14.64372309894341"}}, "geometry": {"type": "Point", "coordinates": [56.21344296541564, -35.041239098676925]}}]}